LEMUR-2-PETERG          
1 42841U 17042S   26068.48235713  .00023240  00000+0  81076-3 0  9993
2 42841  97.3980 253.6596 0003700 341.6938  18.4169 15.29611459473171
STARLINK-34386          
1 66096U 25236L   26068.53016411  .00016685  00000+0  57410-3 0  9993
2 66096  53.1578 104.3663 0000910 105.6690 254.4412 15.30204773 22927
