[{"OBJECT_NAME":"LEMUR-2-PETERG","OBJECT_ID":"2017-042S","EPOCH":"2026-03-09T11:34:35.656032","MEAN_MOTION":15.29611459,"ECCENTRICITY":0.00037,"INCLINATION":97.398,"RA_OF_ASC_NODE":253.6596,"ARG_OF_PERICENTER":341.6938,"MEAN_ANOMALY":18.4169,"EPHEMERIS_TYPE":0,"CLASSIFICATION_TYPE":"U","NORAD_CAT_ID":42841,"ELEMENT_SET_NO":999,"REV_AT_EPOCH":47317,"BSTAR":0.00081076471,"MEAN_MOTION_DOT":0.0002324,"MEAN_MOTION_DDOT":0},{"OBJECT_NAME":"STARLINK-34386","OBJECT_ID":"2025-236L","EPOCH":"2026-03-09T12:43:26.179104","MEAN_MOTION":15.30204773,"ECCENTRICITY":9.109e-5,"INCLINATION":53.1578,"RA_OF_ASC_NODE":104.3663,"ARG_OF_PERICENTER":105.669,"MEAN_ANOMALY":254.4412,"EPHEMERIS_TYPE":0,"CLASSIFICATION_TYPE":"U","NORAD_CAT_ID":66096,"ELEMENT_SET_NO":999,"REV_AT_EPOCH":2292,"BSTAR":0.00057410472,"MEAN_MOTION_DOT":0.00016685,"MEAN_MOTION_DDOT":0}]
